{"type": "FeatureCollection", "features": [{"type": "Feature", "properties": {"norad_id": 22490, "name": "SCD 1", "group": "resource", "lat": 10.628406893110771, "lon": -3.305782364955693, "alt_km": 718.0270986037613, "timestamp": "2025-12-25T09:48:51.942619+00:00", "meta": {"OBJECT_NAME": "SCD 1", "OBJECT_ID": "1993-009B", "EPOCH": "2025-12-24T21:37:14.666016", "MEAN_MOTION": 14.46006798, "ECCENTRICITY": 0.00421805, "INCLINATION": 24.9676, "RA_OF_ASC_NODE": 203.6132, "ARG_OF_PERICENTER": 93.4836, "MEAN_ANOMALY": 289.9522, "EPHEMERIS_TYPE": 0, "CLASSIFICATION_TYPE": "U", "NORAD_CAT_ID": 22490, "ELEMENT_SET_NO": 999, "REV_AT_EPOCH": 73586, "BSTAR": 8.128498e-05, "MEAN_MOTION_DOT": 4.83e-06, "MEAN_MOTION_DDOT": 0}, "tle": {"line1": "1 22490U 93009B   25358.90086419  .00000483  00000+0  81285-4 0  9990", "line2": "2 22490  24.9676 203.6132 0042180  93.4836 289.9522 14.46006798735869"}}, "geometry": {"type": "Point", "coordinates": [-3.305782364955693, 10.628406893110771]}}, {"type": "Feature", "properties": {"norad_id": 25397, "name": "TECHSAT 1B (GO-32)", "group": "resource", "lat": -61.44692232442097, "lon": -0.1665334266290397, "alt_km": 817.8799002849537, "timestamp": "2025-12-25T09:48:51.942645+00:00", "meta": {"OBJECT_NAME": "TECHSAT 1B (GO-32)", "OBJECT_ID": "1998-043D", "EPOCH": "2025-12-24T20:37:17.748480", "MEAN_MOTION": 14.24380271, "ECCENTRICITY": 0.00016683, "INCLINATION": 98.9932, "RA_OF_ASC_NODE": 342.3516, "ARG_OF_PERICENTER": 37.3772, "MEAN_ANOMALY": 322.7522, "EPHEMERIS_TYPE": 0, "CLASSIFICATION_TYPE": "U", "NORAD_CAT_ID": 25397, "ELEMENT_SET_NO": 999, "REV_AT_EPOCH": 42651, "BSTAR": 5.2942367e-05, "MEAN_MOTION_DOT": 7.6e-07, "MEAN_MOTION_DDOT": 0}, "tle": {"line1": "1 25397U 98043D   25358.85923320  .00000076  00000+0  52942-4 0  9993", "line2": "2 25397  98.9932 342.3516 0001668  37.3772 322.7522 14.24380271426515"}}, "geometry": {"type": "Point", "coordinates": [-0.1665334266290397, -61.44692232442097]}}, {"type": "Feature", "properties": {"norad_id": 25504, "name": "SCD 2", "group": "resource", "lat": 8.531510516193137, "lon": -135.00371227594883, "alt_km": 733.7687659185967, "timestamp": "2025-12-25T09:48:51.942660+00:00", "meta": {"OBJECT_NAME": "SCD 2", "OBJECT_ID": "1998-060A", "EPOCH": "2025-12-24T13:48:55.433376", "MEAN_MOTION": 14.45429519, "ECCENTRICITY": 0.00170635, "INCLINATION": 24.9954, "RA_OF_ASC_NODE": 68.9145, "ARG_OF_PERICENTER": 78.1649, "MEAN_ANOMALY": 56.1547, "EPHEMERIS_TYPE": 0, "CLASSIFICATION_TYPE": "U", "NORAD_CAT_ID": 25504, "ELEMENT_SET_NO": 999, "REV_AT_EPOCH": 43503, "BSTAR": 7.2332367e-05, "MEAN_MOTION_DOT": 4.41e-06, "MEAN_MOTION_DDOT": 0}, "tle": {"line1": "1 25504U 98060A   25358.57564159  .00000441  00000+0  72332-4 0  9993", "line2": "2 25504  24.9954  68.9145 0017063  78.1649  56.1547 14.45429519435033"}}, "geometry": {"type": "Point", "coordinates": [-135.00371227594883, 8.531510516193137]}}, {"type": "Feature", "properties": {"norad_id": 25757, "name": "DLR-TUBSAT", "group": "resource", "lat": -10.324170583623099, "lon": -14.096114090447296, "alt_km": 731.8499587137203, "timestamp": "2025-12-25T09:48:51.942673+00:00", "meta": {"OBJECT_NAME": "DLR-TUBSAT", "OBJECT_ID": "1999-029B", "EPOCH": "2025-12-17T13:22:10.787520", "MEAN_MOTION": 14.52359578, "ECCENTRICITY": 0.00141996, "INCLINATION": 98.6566, "RA_OF_ASC_NODE": 336.2196, "ARG_OF_PERICENTER": 177.8976, "MEAN_ANOMALY": 182.2281, "EPHEMERIS_TYPE": 0, "CLASSIFICATION_TYPE": "U", "NORAD_CAT_ID": 25757, "ELEMENT_SET_NO": 999, "REV_AT_EPOCH": 40688, "BSTAR": 3.7650132e-05, "MEAN_MOTION_DOT": 1.05e-06, "MEAN_MOTION_DDOT": 0}, "tle": {"line1": "1 25757U 99029B   25351.55706930  .00000105  00000+0  37650-4 0  9996", "line2": "2 25757  98.6566 336.2196 0014199 177.8976 182.2281 14.52359578406886"}}, "geometry": {"type": "Point", "coordinates": [-14.096114090447296, -10.324170583623099]}}, {"type": "Feature", "properties": {"norad_id": 25994, "name": "TERRA", "group": "resource", "lat": 78.39472930040273, "lon": 7.59107197210386, "alt_km": 680.5324663360734, "timestamp": "2025-12-25T09:48:51.942685+00:00", "meta": {"OBJECT_NAME": "TERRA", "OBJECT_ID": "1999-068A", "EPOCH": "2025-12-24T20:49:05.354976", "MEAN_MOTION": 14.60915016, "ECCENTRICITY": 0.00034339, "INCLINATION": 97.9731, "RA_OF_ASC_NODE": 50.1059, "ARG_OF_PERICENTER": 70.4383, "MEAN_ANOMALY": 44.8464, "EPHEMERIS_TYPE": 0, "CLASSIFICATION_TYPE": "U", "NORAD_CAT_ID": 25994, "ELEMENT_SET_NO": 999, "REV_AT_EPOCH": 38415, "BSTAR": 0.00010734462, "MEAN_MOTION_DOT": 4.81e-06, "MEAN_MOTION_DDOT": 0}, "tle": {"line1": "1 25994U 99068A   25358.86742309  .00000481  00000+0  10734-3 0  9993", "line2": "2 25994  97.9731  50.1059 0003433  70.4383  44.8464 14.60915016384159"}}, "geometry": {"type": "Point", "coordinates": [7.59107197210386, 78.39472930040273]}}, {"type": "Feature", "properties": {"norad_id": 27004, "name": "MAROC-TUBSAT", "group": "resource", "lat": -78.02970403394377, "lon": -66.46138171381098, "alt_km": 994.4992746088801, "timestamp": "2025-12-25T09:48:51.942696+00:00", "meta": {"OBJECT_NAME": "MAROC-TUBSAT", "OBJECT_ID": "2001-056D", "EPOCH": "2025-12-24T16:49:19.722144", "MEAN_MOTION": 13.70253456, "ECCENTRICITY": 0.0019266, "INCLINATION": 99.7916, "RA_OF_ASC_NODE": 167.3555, "ARG_OF_PERICENTER": 228.421, "MEAN_ANOMALY": 143.7745, "EPHEMERIS_TYPE": 0, "CLASSIFICATION_TYPE": "U", "NORAD_CAT_ID": 27004, "ELEMENT_SET_NO": 999, "REV_AT_EPOCH": 20229, "BSTAR": 2.304783e-05, "MEAN_MOTION_DOT": -2.6e-07, "MEAN_MOTION_DDOT": 0}, "tle": {"line1": "1 27004U 01056D   25358.70092271 -.00000026  00000+0  23048-4 0  9995", "line2": "2 27004  99.7916 167.3555 0019266 228.4210 143.7745 13.70253456202293"}}, "geometry": {"type": "Point", "coordinates": [-66.46138171381098, -78.02970403394377]}}, {"type": "Feature", "properties": {"norad_id": 27424, "name": "AQUA", "group": "resource", "lat": -1.8629672422090289, "lon": -39.22919994311441, "alt_km": 690.9879288544753, "timestamp": "2025-12-25T09:48:51.942706+00:00", "meta": {"OBJECT_NAME": "AQUA", "OBJECT_ID": "2002-022A", "EPOCH": "2025-12-24T19:18:33.414624", "MEAN_MOTION": 14.61757572, "ECCENTRICITY": 0.00018094, "INCLINATION": 98.4055, "RA_OF_ASC_NODE": 319.881, "ARG_OF_PERICENTER": 102.1365, "MEAN_ANOMALY": 317.5475, "EPHEMERIS_TYPE": 0, "CLASSIFICATION_TYPE": "U", "NORAD_CAT_ID": 27424, "ELEMENT_SET_NO": 999, "REV_AT_EPOCH": 25779, "BSTAR": 0.00019560508, "MEAN_MOTION_DOT": 9.26e-06, "MEAN_MOTION_DDOT": 0}, "tle": {"line1": "1 27424U 02022A   25358.80455341  .00000926  00000+0  19561-3 0  9999", "line2": "2 27424  98.4055 319.8810 0001809 102.1365 317.5475 14.61757572257795"}}, "geometry": {"type": "Point", "coordinates": [-39.22919994311441, -1.8629672422090289]}}, {"type": "Feature", "properties": {"norad_id": 28051, "name": "IRS-P6 (RESOURCESAT-1)", "group": "resource", "lat": 49.06767115807716, "lon": -131.18244161133276, "alt_km": 721.742491763941, "timestamp": "2025-12-25T09:48:51.942717+00:00", "meta": {"OBJECT_NAME": "IRS-P6 (RESOURCESAT-1)", "OBJECT_ID": "2003-046A", "EPOCH": "2025-12-24T23:43:27.182784", "MEAN_MOTION": 14.36079111, "ECCENTRICITY": 0.00648881, "INCLINATION": 98.2158, "RA_OF_ASC_NODE": 38.8266, "ARG_OF_PERICENTER": 144.108, "MEAN_ANOMALY": 333.9347, "EPHEMERIS_TYPE": 0, "CLASSIFICATION_TYPE": "U", "NORAD_CAT_ID": 28051, "ELEMENT_SET_NO": 999, "REV_AT_EPOCH": 15552, "BSTAR": -9.258087e-06, "MEAN_MOTION_DOT": -6.8e-07, "MEAN_MOTION_DDOT": 0}, "tle": {"line1": "1 28051U 03046A   25358.98850906 -.00000068  00000+0 -92581-5 0  9992", "line2": "2 28051  98.2158  38.8266 0064888 144.1080 333.9347 14.36079111155529"}}, "geometry": {"type": "Point", "coordinates": [-131.18244161133276, 49.06767115807716]}}, {"type": "Feature", "properties": {"norad_id": 28220, "name": "SHIYAN-1 (SY-1)", "group": "resource", "lat": -62.92220264801713, "lon": -134.04664886919366, "alt_km": 484.51747661176705, "timestamp": "2025-12-25T09:48:51.942729+00:00", "meta": {"OBJECT_NAME": "SHIYAN-1 (SY-1)", "OBJECT_ID": "2004-012A", "EPOCH": "2025-12-24T15:27:59.538240", "MEAN_MOTION": 15.28445805, "ECCENTRICITY": 0.00051133, "INCLINATION": 97.8916, "RA_OF_ASC_NODE": 60.8865, "ARG_OF_PERICENTER": 275.1255, "MEAN_ANOMALY": 84.9399, "EPHEMERIS_TYPE": 0, "CLASSIFICATION_TYPE": "U", "NORAD_CAT_ID": 28220, "ELEMENT_SET_NO": 999, "REV_AT_EPOCH": 18438, "BSTAR": 0.00051605795, "MEAN_MOTION_DOT": 0.00014225, "MEAN_MOTION_DDOT": 0}, "tle": {"line1": "1 28220U 04012A   25358.64443910  .00014225  00000+0  51606-3 0  9999", "line2": "2 28220  97.8916  60.8865 0005113 275.1255  84.9399 15.28445805184384"}}, "geometry": {"type": "Point", "coordinates": [-134.04664886919366, -62.92220264801713]}}, {"type": "Feature", "properties": {"norad_id": 28376, "name": "AURA", "group": "resource", "lat": 81.64821743298613, "lon": -144.87211150133484, "alt_km": 681.5534975091132, "timestamp": "2025-12-25T09:48:51.942740+00:00", "meta": {"OBJECT_NAME": "AURA", "OBJECT_ID": "2004-026A", "EPOCH": "2025-12-24T20:15:05.051808", "MEAN_MOTION": 14.60973195, "ECCENTRICITY": 0.00014315, "INCLINATION": 98.3202, "RA_OF_ASC_NODE": 309.1278, "ARG_OF_PERICENTER": 90.8782, "MEAN_ANOMALY": 269.2582, "EPHEMERIS_TYPE": 0, "CLASSIFICATION_TYPE": "U", "NORAD_CAT_ID": 28376, "ELEMENT_SET_NO": 999, "REV_AT_EPOCH": 14075, "BSTAR": 0.00022235995, "MEAN_MOTION_DOT": 1.042e-05, "MEAN_MOTION_DDOT": 0}, "tle": {"line1": "1 28376U 04026A   25358.84380847  .00001042  00000+0  22236-3 0  9997", "line2": "2 28376  98.3202 309.1278 0001431  90.8782 269.2582 14.60973195140751"}}, "geometry": {"type": "Point", "coordinates": [-144.87211150133484, 81.64821743298613]}}]}